CORVUS BC1              
1 42847U 17042Y   25348.91941952  .00003102  00000+0  22247-3 0  9996
2 42847  97.3881 153.5299 0012435   7.5490 352.5922 15.04986088459361
MAKERSAT 0              
1 43016U 17073D   25348.63006788  .00017044  00000+0  57198-3 0  9990
2 43016  97.4892 225.5342 0125915 204.6461 154.8727 15.23555399438280
SIRION PATHFINDER-2     
1 43759U 18099B   25348.73053955  .00005053  00000+0  29481-3 0  9993
2 43759  97.4548  37.1572 0008261 209.0268 151.0504 15.12362043384723
CORVUS BC4              
1 43767U 18099K   25348.63384808  .00003985  00000+0  24515-3 0  9990
2 43767  97.4355  31.9670 0007058 280.1541  79.8892 15.10571028384524
SPACEBEE-7              
1 43816U 18099BL  25348.77066896  .00087863  00000+0  11223-2 0  9992
2 43816  97.4717  64.5422 0002984 161.0266 199.1102 15.58961565385849
SHIELDS 1               
1 43850U 18104B   25348.51000846  .00123684  00000+0  50553-3 0  9994
2 43850  85.0064 262.4302 0008111 101.6967 258.5220 15.85714664390930
M2 PATHFINDER           
1 45727U 20037E   25348.44426236  .00003383  00000+0  25219-3 0  9998
2 45727  97.8136 172.6944 0013647  61.3677 298.8919 15.03517110297722
NETSAT-4                
1 46504U 20068U   25348.91111497  .00012289  00000+0  34341-3 0  9999
2 46504  97.8596 338.3526 0004282 254.3310 105.7460 15.36850265287404
NETSAT-3                
1 46505U 20068V   25348.89026241  .00011947  00000+0  34955-3 0  9990
2 46505  97.8615 336.8453 0003996 279.8024  80.2766 15.35418863287335
NETSAT-1                
1 46506U 20068W   25348.95589822  .00009886  00000+0  35197-3 0  9995
2 46506  97.8667 333.1894 0004124 306.6425  53.4434 15.29169645287091
NETSAT-2                
1 46507U 20068X   25348.90989925  .00013980  00000+0  38413-3 0  9993
2 46507  97.8605 337.8282 0002833 311.0949  49.0049 15.37345183287345
WILDTRACKCUBE-SIMBA     
1 47941U 21022K   25348.95669481  .00072990  00000+0  67208-3 0  9994
2 47941  97.4053 259.7457 0006161  21.7073 338.4448 15.67403715262438
GREENCUBE (IO-117)      
1 53109U 22080E   25348.44384664 -.00000003  00000+0  00000+0 0  9993
2 53109  70.1577   2.4881 0009040 327.2145  32.7953  6.42583234 80191
SITRO-AIS 5 (KATYS)     
1 57176U 23091L   25348.94791494  .00008154  00000+0  33337-3 0  9999
2 57176  97.5349  46.4731 0013463  37.3174 322.8995 15.24541249136221
SITRO-AIS 6 (CHIRKIN)   
1 57192U 23091AC  25348.93173562  .00005179  00000+0  22279-3 0  9993
2 57192  97.5351  46.3196 0013594  39.6775 320.5453 15.23001951136216
SITRO-AIS 8 (ANOKHIN)   
1 57193U 23091AD  25348.98037809  .00012538  00000+0  48235-3 0  9999
2 57193  97.5344  47.4570 0012649  35.3246 324.8828 15.26460628136297
SITRO-AIS 7 (FARTUSHNIY)
1 57194U 23091AE  25348.96977381  .00005153  00000+0  22302-3 0  9998
2 57194  97.5351  46.2578 0013507  40.3355 319.8880 15.22797142136216
SITRO-AIS 10 (BURDAEV)  
1 57199U 23091AK  25348.95173170  .00014998  00000+0  50273-3 0  9991
2 57199  97.5359  50.8839 0008286  18.6109 341.5433 15.30982140136504
SITRO-AIS 9 (SHCHUKIN)  
1 57201U 23091AM  25348.93147755  .00012839  00000+0  43480-3 0  9997
2 57201  97.5357  50.7070 0008301  18.9361 341.2187 15.30686438136495
SITRO-AIS 12 (SMIRENNIY)
1 57204U 23091AQ  25348.95278045  .00012354  00000+0  41566-3 0  9994
2 57204  97.5367  51.0958 0008038  12.7137 347.4304 15.30910097136511
SITRO-AIS 11 (SHEFFER)  
1 57208U 23091AU  25348.94289800  .00012980  00000+0  43288-3 0  9996
2 57208  97.5366  51.2377 0007959  12.5434 347.6003 15.31183704136527
SITRO-AIS 25            
1 59066U 24039R   25348.95290463  .00005694  00000+0  46397-3 0  9999
2 59066  95.3952 108.6022 0148048 251.2686 107.2424 14.91451975 97243
SITRO-AIS 26            
1 59067U 24039S   25348.93115804  .00005529  00000+0  45222-3 0  9996
2 59067  95.3951 108.5192 0148416 251.7631 106.7393 14.91280481 97234
SITRO-AIS 27            
1 59068U 24039T   25348.95025484  .00006403  00000+0  51928-3 0  9995
2 59068  95.3953 108.7246 0147493 250.6678 107.8548 14.91651341 97255
SITRO-AIS 28            
1 59071U 24039U   25348.93211525  .00005628  00000+0  45634-3 0  9995
2 59071  95.3951 108.7497 0147469 250.6257 107.8977 14.91695823 97250
GRBBETA                 
1 60237U 24128C   25348.87782176  .00003793  00000+0  27346-3 0  9999
2 60237  61.9889 142.0757 0056185  96.9867 263.7620 15.04780460 78519
OOV-CUBE (TUBSAT-30)    
1 60240U 24128F   25348.81112922  .00002648  00000+0  21196-3 0  9998
2 60240  61.9939 147.9729 0058438  94.6752 266.1016 15.01622968 78413
ROBUSTA-3A (MEDITERRAN*)
1 60243U 24128J   25348.72170913  .00006847  00000+0  43771-3 0  9993
2 60243  61.9859 138.9935 0056177  91.2694 269.4836 15.08252628 78563
LASARSAT                
1 62391U 24247Q   25348.03942901  .00026006  00000+0  76652-3 0  9992
2 62391  44.9764 213.4521 0002210 154.3380 205.7615 15.34618811 54760
CROCUBE                 
1 62394U 24247T   25347.98877522  .00027422  00000+0  79041-3 0  9992
2 62394  44.9739 213.0130 0003473 146.9160 213.1943 15.35292983 54768
